{
    "links": {
        "self": "http://www.neowsapp.com/rest/v1/neo/3560196?api_key=iIulBulltgU6a56xZRHN4H3l9WmuAYTsLGpBGhQ2"
    },
    "id": "3560196",
    "neo_reference_id": "3560196",
    "name": "(2011 FQ16)",
    "designation": "2011 FQ16",
    "nasa_jpl_url": "http://ssd.jpl.nasa.gov/sbdb.cgi?sstr=3560196",
    "absolute_magnitude_h": 27.6,
    "estimated_diameter": {
        "kilometers": {
            "estimated_diameter_min": 0.0080270317,
            "estimated_diameter_max": 0.0179489885
        },
        "meters": {
            "estimated_diameter_min": 8.0270316728,
            "estimated_diameter_max": 17.948988478
        },
        "miles": {
            "estimated_diameter_min": 0.0049877647,
            "estimated_diameter_max": 0.0111529809
        },
        "feet": {
            "estimated_diameter_min": 26.3354065935,
            "estimated_diameter_max": 58.8877593581
        }
    },
    "is_potentially_hazardous_asteroid": false,
    "close_approach_data": [
        {
            "close_approach_date": "2011-03-23",
            "close_approach_date_full": "2011-Mar-23 09:49",
            "epoch_date_close_approach": 1300873740000,
            "relative_velocity": {
                "kilometers_per_second": "7.64428394",
                "kilometers_per_hour": "27519.4221839004",
                "miles_per_hour": "17099.4987453241"
            },
            "miss_distance": {
                "astronomical": "0.0313799871",
                "lunar": "12.2068149819",
                "kilometers": "4694379.230787477",
                "miles": "2916951.9931501026"
            },
            "orbiting_body": "Earth"
        }
    ],
    "orbital_data": {
        "orbit_id": "5",
        "orbit_determination_date": "2017-04-06 08:54:01",
        "first_observation_date": "2011-03-28",
        "last_observation_date": "2011-03-29",
        "data_arc_in_days": 1,
        "observations_used": 15,
        "orbit_uncertainty": "9",
        "minimum_orbit_intersection": ".0129017",
        "jupiter_tisserand_invariant": "3.531",
        "epoch_osculation": "2455649.5",
        "eccentricity": ".5295479478948679",
        "semi_major_axis": "2.126430715880963",
        "inclination": "1.429024061045427",
        "ascending_node_longitude": "186.5417667757977",
        "orbital_period": "1132.596674909814",
        "perihelion_distance": "1.000383693945584",
        "perihelion_argument": "334.5610958772248",
        "aphelion_distance": "3.252477737816341",
        "perihelion_time": "2455627.157006010101",
        "mean_anomaly": "7.1018024461392",
        "mean_motion": ".3178536613915682",
        "equinox": "J2000",
        "orbit_class": {
            "orbit_class_type": "APO",
            "orbit_class_description": "Near-Earth asteroid orbits which cross the Earth’s orbit similar to that of 1862 Apollo",
            "orbit_class_range": "a (semi-major axis) > 1.0 AU; q (perihelion) < 1.017 AU"
        }
    },
    "is_sentry_object": false
}